{
    "links": {
        "self": "http://www.neowsapp.com/rest/v1/neo/3512646?api_key=iIulBulltgU6a56xZRHN4H3l9WmuAYTsLGpBGhQ2"
    },
    "id": "3512646",
    "neo_reference_id": "3512646",
    "name": "(2010 FD7)",
    "designation": "2010 FD7",
    "nasa_jpl_url": "http://ssd.jpl.nasa.gov/sbdb.cgi?sstr=3512646",
    "absolute_magnitude_h": 22.1,
    "estimated_diameter": {
        "kilometers": {
            "estimated_diameter_min": 0.1010543415,
            "estimated_diameter_max": 0.2259643771
        },
        "meters": {
            "estimated_diameter_min": 101.054341542,
            "estimated_diameter_max": 225.9643771094
        },
        "miles": {
            "estimated_diameter_min": 0.0627922373,
            "estimated_diameter_max": 0.140407711
        },
        "feet": {
            "estimated_diameter_min": 331.5431259047,
            "estimated_diameter_max": 741.3529669956
        }
    },
    "is_potentially_hazardous_asteroid": false,
    "close_approach_data": [
        {
            "close_approach_date": "2010-04-14",
            "close_approach_date_full": "2010-Apr-14 18:47",
            "epoch_date_close_approach": 1271270820000,
            "relative_velocity": {
                "kilometers_per_second": "17.8306249581",
                "kilometers_per_hour": "64190.2498492478",
                "miles_per_hour": "39885.3249688285"
            },
            "miss_distance": {
                "astronomical": "0.0842854516",
                "lunar": "32.7870406724",
                "kilometers": "12608924.031348092",
                "miles": "7834822.0875519896"
            },
            "orbiting_body": "Earth"
        },
        {
            "close_approach_date": "2014-09-06",
            "close_approach_date_full": "2014-Sep-06 07:21",
            "epoch_date_close_approach": 1409988060000,
            "relative_velocity": {
                "kilometers_per_second": "24.0260824733",
                "kilometers_per_hour": "86493.8969039898",
                "miles_per_hour": "53743.943884593"
            },
            "miss_distance": {
                "astronomical": "0.2651743954",
                "lunar": "103.1528398106",
                "kilometers": "39669524.730377798",
                "miles": "24649499.6549696924"
            },
            "orbiting_body": "Earth"
        },
        {
            "close_approach_date": "2025-04-10",
            "close_approach_date_full": "2025-Apr-10 02:36",
            "epoch_date_close_approach": 1744252560000,
            "relative_velocity": {
                "kilometers_per_second": "6.7093304464",
                "kilometers_per_hour": "24153.5896069203",
                "miles_per_hour": "15008.1012754778"
            },
            "miss_distance": {
                "astronomical": "1.1361185029",
                "lunar": "441.9500976281",
                "kilometers": "169960908.101428823",
                "miles": "105608811.1485828374"
            },
            "orbiting_body": "Juptr"
        },
        {
            "close_approach_date": "2037-02-06",
            "close_approach_date_full": "2037-Feb-06 04:01",
            "epoch_date_close_approach": 2117505660000,
            "relative_velocity": {
                "kilometers_per_second": "5.5868527606",
                "kilometers_per_hour": "20112.6699381339",
                "miles_per_hour": "12497.2309401699"
            },
            "miss_distance": {
                "astronomical": "0.9715355314",
                "lunar": "377.9273217146",
                "kilometers": "145339646.126758118",
                "miles": "90309868.3789253084"
            },
            "orbiting_body": "Juptr"
        }
    ],
    "orbital_data": {
        "orbit_id": "16",
        "orbit_determination_date": "2020-11-29 05:18:43",
        "first_observation_date": "2010-03-19",
        "last_observation_date": "2010-04-16",
        "data_arc_in_days": 28,
        "observations_used": 51,
        "orbit_uncertainty": "7",
        "minimum_orbit_intersection": ".0551072",
        "jupiter_tisserand_invariant": "3.032",
        "epoch_osculation": "2459000.5",
        "eccentricity": ".6860855451962867",
        "semi_major_axis": "2.585129307371045",
        "inclination": "6.177337499988162",
        "ascending_node_longitude": "357.4568713907739",
        "orbital_period": "1518.174993649364",
        "perihelion_distance": ".8115094571204825",
        "perihelion_argument": "269.3097760989276",
        "aphelion_distance": "4.358749157621607",
        "perihelion_time": "2458381.969493686376",
        "mean_anomaly": "146.6701685934451",
        "mean_motion": ".2371268144356916",
        "equinox": "J2000",
        "orbit_class": {
            "orbit_class_type": "APO",
            "orbit_class_description": "Near-Earth asteroid orbits which cross the Earth’s orbit similar to that of 1862 Apollo",
            "orbit_class_range": "a (semi-major axis) > 1.0 AU; q (perihelion) < 1.017 AU"
        }
    },
    "is_sentry_object": false
}